[{"OBJECT_NAME":"STARLINK-11462 [DTC]","OBJECT_ID":"2024-249D","EPOCH":"2026-03-09T07:52:54.638688","MEAN_MOTION":15.70830095,"ECCENTRICITY":0.00050088,"INCLINATION":42.9983,"RA_OF_ASC_NODE":169.844,"ARG_OF_PERICENTER":292.4524,"MEAN_ANOMALY":67.5813,"EPHEMERIS_TYPE":0,"CLASSIFICATION_TYPE":"U","NORAD_CAT_ID":62412,"ELEMENT_SET_NO":999,"REV_AT_EPOCH":6942,"BSTAR":0.0023328824,"MEAN_MOTION_DOT":0.0031031,"MEAN_MOTION_DDOT":0},{"OBJECT_NAME":"OBJECT AA","OBJECT_ID":"2018-111AA","EPOCH":"2026-03-09T23:36:11.109888","MEAN_MOTION":15.74757696,"ECCENTRICITY":0.00074829,"INCLINATION":96.9708,"RA_OF_ASC_NODE":294.3811,"ARG_OF_PERICENTER":159.1179,"MEAN_ANOMALY":201.0394,"EPHEMERIS_TYPE":0,"CLASSIFICATION_TYPE":"U","NORAD_CAT_ID":43900,"ELEMENT_SET_NO":999,"REV_AT_EPOCH":40295,"BSTAR":0.00046694108,"MEAN_MOTION_DOT":0.00068892,"MEAN_MOTION_DDOT":0}]
